ORBCOMM FM115           
1 41186U 15081H   25104.92347855  .00001718  00000+0  37087-3 0  9994
2 41186  47.0000 340.4128 0000358 157.2184 202.8719 14.62358319498517
ORBCOMM FM108           
1 41187U 15081J   25105.06101202  .00001948  00000+0  45650-3 0  9995
2 41187  47.0050  45.0588 0002737   7.4184 352.6742 14.57998096497661
ORBCOMM FM117           
1 41188U 15081K   25104.89026288  .00001964  00000+0  45989-3 0  9999
2 41188  47.0012  44.6488 0003079  16.1856 343.9128 14.58004970497602
ORBCOMM FM116           
1 41189U 15081L   25104.81290254  .00001359  00000+0  32931-3 0  9999
2 41189  47.0008 134.8836 0000406 146.8071 213.2839 14.58027744496407
